CCSDS_OMM_VERS = 2.0
CREATION_DATE  = 
ORIGINATOR     = 

OBJECT_NAME    = 2026-027A
OBJECT_ID      = 2026-027A
CENTER_NAME    = EARTH
REF_FRAME      = TEME
TIME_SYSTEM    = UTC
MEAN_ELEMENT_THEORY = SGP/SGP4

EPOCH          = 2026-03-14T07:38:34.685664
MEAN_MOTION    = 15.17805868
ECCENTRICITY   = .00105186
INCLINATION    = 97.4901
RA_OF_ASC_NODE = 202.2831
ARG_OF_PERICENTER = 178.6546
MEAN_ANOMALY   = 181.4718

EPHEMERIS_TYPE = 0
CLASSIFICATION_TYPE = U
NORAD_CAT_ID   = 67746
ELEMENT_SET_NO = 999
REV_AT_EPOCH   = 456
BSTAR          = .52585176E-3
MEAN_MOTION_DOT = .10586E-3
MEAN_MOTION_DDOT = 0

CCSDS_OMM_VERS = 2.0
CREATION_DATE  = 
ORIGINATOR     = 

OBJECT_NAME    = 2026-027B
OBJECT_ID      = 2026-027B
CENTER_NAME    = EARTH
REF_FRAME      = TEME
TIME_SYSTEM    = UTC
MEAN_ELEMENT_THEORY = SGP/SGP4

EPOCH          = 2026-03-14T07:35:42.460224
MEAN_MOTION    = 15.17905607
ECCENTRICITY   = .00106203
INCLINATION    = 97.4896
RA_OF_ASC_NODE = 202.2836
ARG_OF_PERICENTER = 181.0363
MEAN_ANOMALY   = 179.0850

EPHEMERIS_TYPE = 0
CLASSIFICATION_TYPE = U
NORAD_CAT_ID   = 67747
ELEMENT_SET_NO = 999
REV_AT_EPOCH   = 456
BSTAR          = .52767995E-3
MEAN_MOTION_DOT = .10654E-3
MEAN_MOTION_DDOT = 0

CCSDS_OMM_VERS = 2.0
CREATION_DATE  = 
ORIGINATOR     = 

OBJECT_NAME    = 2026-027C
OBJECT_ID      = 2026-027C
CENTER_NAME    = EARTH
REF_FRAME      = TEME
TIME_SYSTEM    = UTC
MEAN_ELEMENT_THEORY = SGP/SGP4

EPOCH          = 2026-03-14T07:33:42.156864
MEAN_MOTION    = 15.17882031
ECCENTRICITY   = .00110039
INCLINATION    = 97.4909
RA_OF_ASC_NODE = 202.2901
ARG_OF_PERICENTER = 183.0485
MEAN_ANOMALY   = 177.0684

EPHEMERIS_TYPE = 0
CLASSIFICATION_TYPE = U
NORAD_CAT_ID   = 67748
ELEMENT_SET_NO = 999
REV_AT_EPOCH   = 456
BSTAR          = .36079298E-3
MEAN_MOTION_DOT = .7256E-4
MEAN_MOTION_DDOT = 0

CCSDS_OMM_VERS = 2.0
CREATION_DATE  = 
ORIGINATOR     = 

OBJECT_NAME    = 2026-027D
OBJECT_ID      = 2026-027D
CENTER_NAME    = EARTH
REF_FRAME      = TEME
TIME_SYSTEM    = UTC
MEAN_ELEMENT_THEORY = SGP/SGP4

EPOCH          = 2026-03-14T07:26:27.395520
MEAN_MOTION    = 15.18279787
ECCENTRICITY   = .00105706
INCLINATION    = 97.4903
RA_OF_ASC_NODE = 202.2951
ARG_OF_PERICENTER = 188.4869
MEAN_ANOMALY   = 171.6188

EPHEMERIS_TYPE = 0
CLASSIFICATION_TYPE = U
NORAD_CAT_ID   = 67749
ELEMENT_SET_NO = 999
REV_AT_EPOCH   = 451
BSTAR          = .63317499E-3
MEAN_MOTION_DOT = .1294E-3
MEAN_MOTION_DDOT = 0

CCSDS_OMM_VERS = 2.0
CREATION_DATE  = 
ORIGINATOR     = 

OBJECT_NAME    = 2026-027E
OBJECT_ID      = 2026-027E
CENTER_NAME    = EARTH
REF_FRAME      = TEME
TIME_SYSTEM    = UTC
MEAN_ELEMENT_THEORY = SGP/SGP4

EPOCH          = 2026-03-14T07:27:00.436608
MEAN_MOTION    = 15.18215399
ECCENTRICITY   = .00098629
INCLINATION    = 97.4914
RA_OF_ASC_NODE = 202.2989
ARG_OF_PERICENTER = 189.1828
MEAN_ANOMALY   = 170.9227

EPHEMERIS_TYPE = 0
CLASSIFICATION_TYPE = U
NORAD_CAT_ID   = 67750
ELEMENT_SET_NO = 999
REV_AT_EPOCH   = 456
BSTAR          = .54930792E-3
MEAN_MOTION_DOT = .11192E-3
MEAN_MOTION_DDOT = 0

CCSDS_OMM_VERS = 2.0
CREATION_DATE  = 
ORIGINATOR     = 

OBJECT_NAME    = 2026-027F
OBJECT_ID      = 2026-027F
CENTER_NAME    = EARTH
REF_FRAME      = TEME
TIME_SYSTEM    = UTC
MEAN_ELEMENT_THEORY = SGP/SGP4

EPOCH          = 2026-03-12T19:00:38.279808
MEAN_MOTION    = 15.17898571
ECCENTRICITY   = .00092398
INCLINATION    = 97.4916
RA_OF_ASC_NODE = 200.8018
ARG_OF_PERICENTER = 190.5872
MEAN_ANOMALY   = 169.5169

EPHEMERIS_TYPE = 0
CLASSIFICATION_TYPE = U
NORAD_CAT_ID   = 67751
ELEMENT_SET_NO = 999
REV_AT_EPOCH   = 433
BSTAR          = .19459815E-3
MEAN_MOTION_DOT = .3881E-4
MEAN_MOTION_DDOT = 0

CCSDS_OMM_VERS = 2.0
CREATION_DATE  = 
ORIGINATOR     = 

OBJECT_NAME    = 2026-027G
OBJECT_ID      = 2026-027G
CENTER_NAME    = EARTH
REF_FRAME      = TEME
TIME_SYSTEM    = UTC
MEAN_ELEMENT_THEORY = SGP/SGP4

EPOCH          = 2026-03-14T06:42:33.096672
MEAN_MOTION    = 15.12224135
ECCENTRICITY   = .00122175
INCLINATION    = 97.4911
RA_OF_ASC_NODE = 202.1856
ARG_OF_PERICENTER = 210.6738
MEAN_ANOMALY   = 149.3780

EPHEMERIS_TYPE = 0
CLASSIFICATION_TYPE = U
NORAD_CAT_ID   = 67752
ELEMENT_SET_NO = 999
REV_AT_EPOCH   = 455
BSTAR          = .50999824E-3
MEAN_MOTION_DOT = .8766E-4
MEAN_MOTION_DDOT = 0

CCSDS_OMM_VERS = 2.0
CREATION_DATE  = 
ORIGINATOR     = 

OBJECT_NAME    = JIELONG-3 R/B
OBJECT_ID      = 2026-027H
CENTER_NAME    = EARTH
REF_FRAME      = TEME
TIME_SYSTEM    = UTC
MEAN_ELEMENT_THEORY = SGP/SGP4

EPOCH          = 2026-03-14T07:49:17.781600
MEAN_MOTION    = 15.81979768
ECCENTRICITY   = .01940623
INCLINATION    = 97.5098
RA_OF_ASC_NODE = 204.7637
ARG_OF_PERICENTER = 228.0374
MEAN_ANOMALY   = 130.4221

EPHEMERIS_TYPE = 0
CLASSIFICATION_TYPE = U
NORAD_CAT_ID   = 67753
ELEMENT_SET_NO = 999
REV_AT_EPOCH   = 471
BSTAR          = .85018821E-3
MEAN_MOTION_DOT = .761761E-2
MEAN_MOTION_DDOT = .2349552E-5

CCSDS_OMM_VERS = 2.0
CREATION_DATE  = 
ORIGINATOR     = 

OBJECT_NAME    = 2025-313BF
OBJECT_ID      = 2025-313BF
CENTER_NAME    = EARTH
REF_FRAME      = TEME
TIME_SYSTEM    = UTC
MEAN_ELEMENT_THEORY = SGP/SGP4

EPOCH          = 2026-03-13T03:49:44.167872
MEAN_MOTION    = 15.30584100
ECCENTRICITY   = .00075237
INCLINATION    = 97.3987
RA_OF_ASC_NODE = 148.8127
ARG_OF_PERICENTER = 320.9316
MEAN_ANOMALY   = 39.1381

EPHEMERIS_TYPE = 0
CLASSIFICATION_TYPE = U
NORAD_CAT_ID   = 67755
ELEMENT_SET_NO = 999
REV_AT_EPOCH   = 705
BSTAR          = .42800467E-3
MEAN_MOTION_DOT = .12596E-3
MEAN_MOTION_DDOT = 0

CCSDS_OMM_VERS = 2.0
CREATION_DATE  = 
ORIGINATOR     = 

OBJECT_NAME    = 2026-028A
OBJECT_ID      = 2026-028A
CENTER_NAME    = EARTH
REF_FRAME      = TEME
TIME_SYSTEM    = UTC
MEAN_ELEMENT_THEORY = SGP/SGP4

EPOCH          = 2026-03-13T07:27:10.915200
MEAN_MOTION    = 1.00209117
ECCENTRICITY   = .00035368
INCLINATION    = 0.4621
RA_OF_ASC_NODE = 290.7944
ARG_OF_PERICENTER = 43.1462
MEAN_ANOMALY   = 26.0222

EPHEMERIS_TYPE = 0
CLASSIFICATION_TYPE = U
NORAD_CAT_ID   = 67756
ELEMENT_SET_NO = 999
REV_AT_EPOCH   = 30
BSTAR          = 0
MEAN_MOTION_DOT = -.95E-6
MEAN_MOTION_DDOT = 0

CCSDS_OMM_VERS = 2.0
CREATION_DATE  = 
ORIGINATOR     = 

OBJECT_NAME    = JAM-E JAM 1
OBJECT_ID      = 2026-028B
CENTER_NAME    = EARTH
REF_FRAME      = TEME
TIME_SYSTEM    = UTC
MEAN_ELEMENT_THEORY = SGP/SGP4

EPOCH          = 2026-03-12T19:01:04.274112
MEAN_MOTION    = 1.00231393
ECCENTRICITY   = .00057502
INCLINATION    = 0.4861
RA_OF_ASC_NODE = 286.1715
ARG_OF_PERICENTER = 134.5705
MEAN_ANOMALY   = 68.8815

EPHEMERIS_TYPE = 0
CLASSIFICATION_TYPE = U
NORAD_CAT_ID   = 67757
ELEMENT_SET_NO = 999
REV_AT_EPOCH   = 15
BSTAR          = 0
MEAN_MOTION_DOT = .155E-5
MEAN_MOTION_DDOT = 0

CCSDS_OMM_VERS = 2.0
CREATION_DATE  = 
ORIGINATOR     = 

OBJECT_NAME    = KUIPER-00159
OBJECT_ID      = 2026-030A
CENTER_NAME    = EARTH
REF_FRAME      = TEME
TIME_SYSTEM    = UTC
MEAN_ELEMENT_THEORY = SGP/SGP4

EPOCH          = 2026-03-13T15:59:38.472000
MEAN_MOTION    = 15.35996984
ECCENTRICITY   = .00048995
INCLINATION    = 51.8865
RA_OF_ASC_NODE = 199.9851
ARG_OF_PERICENTER = 52.1163
MEAN_ANOMALY   = 308.0266

EPHEMERIS_TYPE = 0
CLASSIFICATION_TYPE = U
NORAD_CAT_ID   = 67764
ELEMENT_SET_NO = 999
REV_AT_EPOCH   = 570
BSTAR          = .12414249E-2
MEAN_MOTION_DOT = .44068E-3
MEAN_MOTION_DDOT = 0

