2026-027A               
1 67746U 26027A   26073.31845701  .00010586  00000+0  52585-3 0  9991
2 67746  97.4901 202.2831 0010518 178.6546 181.4718 15.17805868  4566
2026-027B               
1 67747U 26027B   26073.31646366  .00010654  00000+0  52768-3 0  9997
2 67747  97.4896 202.2836 0010620 181.0363 179.0850 15.17905607  4566
2026-027C               
1 67748U 26027C   26073.31507126  .00007256  00000+0  36079-3 0  9999
2 67748  97.4909 202.2901 0011003 183.0485 177.0684 15.17882031  4566
2026-027D               
1 67749U 26027D   26073.31003930  .00012940  00000+0  63317-3 0  9995
2 67749  97.4903 202.2951 0010570 188.4869 171.6188 15.18279787  4512
2026-027E               
1 67750U 26027E   26073.31042172  .00011192  00000+0  54931-3 0  9998
2 67750  97.4914 202.2989 0009862 189.1828 170.9227 15.18215399  4562
2026-027F               
1 67751U 26027F   26071.79210972  .00003881  00000+0  19460-3 0  9998
2 67751  97.4916 200.8018 0009239 190.5872 169.5169 15.17898571  4337
2026-027G               
1 67752U 26027G   26073.27954973  .00008766  00000+0  51000-3 0  9993
2 67752  97.4911 202.1856 0012217 210.6738 149.3780 15.12224135  4556
JIELONG-3 R/B           
1 67753U 26027H   26073.32590025  .00761761  23496-5  85019-3 0  9992
2 67753  97.5098 204.7637 0194062 228.0374 130.4221 15.81979768  4711
2025-313BF              
1 67755U 25313BF  26072.15953898  .00012596  00000+0  42800-3 0  9998
2 67755  97.3987 148.8127 0007523 320.9316  39.1381 15.30584100  7051
2026-028A               
1 67756U 26028A   26072.31054300 -.00000095  00000+0  00000+0 0  9995
2 67756   0.4621 290.7944 0003536  43.1462  26.0222  1.00209117   306
JAM-E JAM 1             
1 67757U 26028B   26071.79241058  .00000155  00000+0  00000+0 0  9991
2 67757   0.4861 286.1715 0005750 134.5705  68.8815  1.00231393   159
KUIPER-00159            
1 67764U 26030A   26072.66641750  .00044068  00000+0  12414-2 0  9998
2 67764  51.8865 199.9851 0004899  52.1163 308.0266 15.35996984  5701
